0 SL-14 R/B
1 12786U 81082B   13282.13395737  .00000262  00000-0  28647-4 0  6906
2 12786 082.4894 156.7333 0018086 024.9307 135.7106 14.83840270734988
0 SL-14 R/B
1 12786U 81082B   13283.14673822  .00000251  00000-0  27272-4 0  6914
2 12786 082.4892 155.7803 0017990 021.6265 145.7716 14.83840955735133
0 SL-14 R/B
1 12786U 81082B   13285.76706587  .00000291  00000-0  32158-4 0  6934
2 12786 082.4886 153.3146 0017748 013.0251 103.0745 14.83841683735522
0 SL-14 R/B
1 12786U 81082B   13287.12542302  .00000312  00000-0  34649-4 0  6941
2 12786 082.4883 152.0362 0017625 008.4696 159.2640 14.83842748735722
0 SL-14 R/B
1 12786U 81082B   13288.45305179  .00000452  00000-0  51512-4 0  6951
2 12786 082.4880 150.7868 0017512 004.0918 051.2393 14.83844012735923
0 SL-14 R/B
1 12786U 81082B   13289.46706550  .00000327  00000-0  36499-4 0  6960
2 12786 082.4878 149.8325 0017416 000.6676 068.0166 14.83845127736072
0 SL-14 R/B
1 12786U 81082B   13290.68882167  .00000319  00000-0  35570-4 0  6976
2 12786 082.4877 148.6826 0017314 356.5324 114.5501 14.83846361736255
0 SL-14 R/B
1 12786U 81082B   13292.17769866  .00000349  00000-0  39151-4 0  6985
2 12786 082.4876 147.2812 0017194 351.4067 148.1203 14.83846656736471
0 SL-14 R/B
1 12786U 81082B   13293.44341716  .00000372  00000-0  41964-4 0  6998
2 12786 082.4876 146.0899 0017079 347.0822 069.5494 14.83847398736668
0 SL-14 R/B
1 12786U 81082B   13294.45828722  .00000346  00000-0  38850-4 0  7001
2 12786 082.4875 145.1346 0017003 343.5652 091.0038 14.83848570736817
0 SL-14 R/B
1 12786U 81082B   13295.52613909  .00000377  00000-0  42565-4 0  7012
2 12786 082.4875 144.1295 0016927 339.8842 035.4728 14.83849243736975
